[{"OBJECT_NAME":"YAOGAN-25 01B","OBJECT_ID":"2014-080B","EPOCH":"2026-03-09T23:17:16.355616","MEAN_MOTION":13.4542541,"ECCENTRICITY":0.03582156,"INCLINATION":63.3885,"RA_OF_ASC_NODE":206.5248,"ARG_OF_PERICENTER":8.4777,"MEAN_ANOMALY":352.2085,"EPHEMERIS_TYPE":0,"CLASSIFICATION_TYPE":"U","NORAD_CAT_ID":40339,"ELEMENT_SET_NO":999,"REV_AT_EPOCH":55228,"BSTAR":5.3898333e-5,"MEAN_MOTION_DOT":-4.4e-7,"MEAN_MOTION_DDOT":0},{"OBJECT_NAME":"QIANFAN-82","OBJECT_ID":"2025-046K","EPOCH":"2026-03-09T22:02:13.782048","MEAN_MOTION":13.51000959,"ECCENTRICITY":0.00111186,"INCLINATION":88.9752,"RA_OF_ASC_NODE":310.9127,"ARG_OF_PERICENTER":233.9114,"MEAN_ANOMALY":126.1008,"EPHEMERIS_TYPE":0,"CLASSIFICATION_TYPE":"U","NORAD_CAT_ID":63168,"ELEMENT_SET_NO":999,"REV_AT_EPOCH":5924,"BSTAR":0.00023396096,"MEAN_MOTION_DOT":1.63e-6,"MEAN_MOTION_DDOT":0}]
